1 48046U 21025E 26162.18475960 .00000096 00000+0 22915-3 0 9995 
2 48046 87.8956 321.4123 0001745 92.1162 268.0167 13.13468930252862 
1 48047U 21025F 26162.16106967 -.00000277 00000+0 -79465-3 0 9997 
2 48047 87.8956 321.4142 0002013 94.3172 265.8187 13.13469586252751 
1 48048U 21025G 26162.16276268 -.00000272 00000+0 -77948-3 0 9999 
2 48048 87.8960 321.4100 0001940 102.8785 257.2561 13.13469621252733 
1 48049U 21025H 26162.20170162 .00000368 00000+0 97400-3 0 9990 
2 48049 87.8947 321.4185 0001722 99.8046 260.3277 13.13470112252719 
1 48050U 21025J 26162.15182563 -.00000160 00000+0 -46913-3 0 9999 
2 48050 87.8953 321.3390 0001839 92.6570 267.4770 13.13894189252818 
1 48051U 21025K 26162.16784137 -.00000264 00000+0 -75839-3 0 9990 
2 48051 87.8956 321.4073 0001701 103.0100 257.1219 13.13470331252807 
1 48052U 21025L 26162.17630396 -.00000095 00000+0 -29630-3 0 9999 
2 48052 87.8957 321.4153 0001925 98.2353 261.8994 13.13470423252782 
1 48053U 21025M 26162.15091157 -.00000161 00000+0 -47553-3 0 9992 
2 48053 87.8957 321.4214 0001924 99.4164 260.7182 13.13470026252712 
1 48054U 21025N 26162.18647385 .00000159 00000+0 40121-3 0 9995 
2 48054 87.8956 321.4118 0001601 92.4742 267.6571 13.13471609252842 
1 48055U 21025P 26162.13568640 .00000196 00000+0 50133-3 0 9992 
2 48055 87.8954 321.4278 0001952 106.4657 253.6687 13.13468982252773 
1 48056U 21025Q 26162.18802162 .00000154 00000+0 38812-3 0 9992 
2 48056 87.8952 321.4182 0001987 94.3272 265.8084 13.13470186252755 
1 48057U 21025R 26162.19492914 .00001416 00000+0 38428-2 0 9998 
2 48057 87.8943 321.4126 0001830 101.1807 258.9528 13.13464734252895 
1 48058U 21025S 26161.98840595 .00000050 00000+0 10207-3 0 9996 
2 48058 87.8955 321.4574 0002019 93.8702 266.2658 13.13469227252671 
1 48059U 21025T 26162.17969166 -.00000003 00000+0 -44098-4 0 9991 
2 48059 87.8949 321.4267 0002408 95.8750 264.2653 13.13470294252827 
1 48060U 21025U 26162.19662143 .00000335 00000+0 88120-3 0 9999 
2 48060 87.8949 321.4194 0001582 71.5270 288.6031 13.13470569252777 
1 48061U 21025V 26161.95284733 .00000049 00000+0 10009-3 0 9991 
2 48061 87.8955 321.4619 0001893 104.4737 255.6603 13.13471238252869 
