[{"OBJECT_NAME":"ONEWEB-0116","OBJECT_ID":"2021-025E","EPOCH":"2026-06-11T04:26:03.229440","MEAN_MOTION":13.1346893,"ECCENTRICITY":0.0001745,"INCLINATION":87.8956,"RA_OF_ASC_NODE":321.4123,"ARG_OF_PERICENTER":92.1162,"MEAN_ANOMALY":268.0167,"EPHEMERIS_TYPE":0,"CLASSIFICATION_TYPE":"U","NORAD_CAT_ID":48046,"ELEMENT_SET_NO":999,"REV_AT_EPOCH":25286,"BSTAR":0.00022914999999999999,"MEAN_MOTION_DOT":9.6e-07,"MEAN_MOTION_DDOT":0.0},{"OBJECT_NAME":"ONEWEB-0150","OBJECT_ID":"2021-025F","EPOCH":"2026-06-11T03:51:56.419488","MEAN_MOTION":13.13469586,"ECCENTRICITY":0.0002013,"INCLINATION":87.8956,"RA_OF_ASC_NODE":321.4142,"ARG_OF_PERICENTER":94.3172,"MEAN_ANOMALY":265.8187,"EPHEMERIS_TYPE":0,"CLASSIFICATION_TYPE":"U","NORAD_CAT_ID":48047,"ELEMENT_SET_NO":999,"REV_AT_EPOCH":25275,"BSTAR":-0.0007946499999999999,"MEAN_MOTION_DOT":-2.77e-06,"MEAN_MOTION_DDOT":0.0},{"OBJECT_NAME":"ONEWEB-0107","OBJECT_ID":"2021-025G","EPOCH":"2026-06-11T03:54:22.695552","MEAN_MOTION":13.13469621,"ECCENTRICITY":0.000194,"INCLINATION":87.896,"RA_OF_ASC_NODE":321.41,"ARG_OF_PERICENTER":102.8785,"MEAN_ANOMALY":257.2561,"EPHEMERIS_TYPE":0,"CLASSIFICATION_TYPE":"U","NORAD_CAT_ID":48048,"ELEMENT_SET_NO":999,"REV_AT_EPOCH":25273,"BSTAR":-0.0007794799999999999,"MEAN_MOTION_DOT":-2.72e-06,"MEAN_MOTION_DDOT":0.0},{"OBJECT_NAME":"ONEWEB-0101","OBJECT_ID":"2021-025H","EPOCH":"2026-06-11T04:50:27.019968","MEAN_MOTION":13.13470112,"ECCENTRICITY":0.0001722,"INCLINATION":87.8947,"RA_OF_ASC_NODE":321.4185,"ARG_OF_PERICENTER":99.8046,"MEAN_ANOMALY":260.3277,"EPHEMERIS_TYPE":0,"CLASSIFICATION_TYPE":"U","NORAD_CAT_ID":48049,"ELEMENT_SET_NO":999,"REV_AT_EPOCH":25271,"BSTAR":0.000974,"MEAN_MOTION_DOT":3.68e-06,"MEAN_MOTION_DDOT":0.0},{"OBJECT_NAME":"ONEWEB-0113","OBJECT_ID":"2021-025J","EPOCH":"2026-06-11T03:38:37.734432","MEAN_MOTION":13.13894189,"ECCENTRICITY":0.0001839,"INCLINATION":87.8953,"RA_OF_ASC_NODE":321.339,"ARG_OF_PERICENTER":92.657,"MEAN_ANOMALY":267.477,"EPHEMERIS_TYPE":0,"CLASSIFICATION_TYPE":"U","NORAD_CAT_ID":48050,"ELEMENT_SET_NO":999,"REV_AT_EPOCH":25281,"BSTAR":-0.00046913,"MEAN_MOTION_DOT":-1.6e-06,"MEAN_MOTION_DDOT":0.0},{"OBJECT_NAME":"ONEWEB-0112","OBJECT_ID":"2021-025K","EPOCH":"2026-06-11T04:01:41.494368","MEAN_MOTION":13.13470331,"ECCENTRICITY":0.0001701,"INCLINATION":87.8956,"RA_OF_ASC_NODE":321.4073,"ARG_OF_PERICENTER":103.01,"MEAN_ANOMALY":257.1219,"EPHEMERIS_TYPE":0,"CLASSIFICATION_TYPE":"U","NORAD_CAT_ID":48051,"ELEMENT_SET_NO":999,"REV_AT_EPOCH":25280,"BSTAR":-0.0007583900000000001,"MEAN_MOTION_DOT":-2.64e-06,"MEAN_MOTION_DDOT":0.0},{"OBJECT_NAME":"ONEWEB-0156","OBJECT_ID":"2021-025L","EPOCH":"2026-06-11T04:13:52.662144","MEAN_MOTION":13.13470423,"ECCENTRICITY":0.0001925,"INCLINATION":87.8957,"RA_OF_ASC_NODE":321.4153,"ARG_OF_PERICENTER":98.2353,"MEAN_ANOMALY":261.8994,"EPHEMERIS_TYPE":0,"CLASSIFICATION_TYPE":"U","NORAD_CAT_ID":48052,"ELEMENT_SET_NO":999,"REV_AT_EPOCH":25278,"BSTAR":-0.0002963,"MEAN_MOTION_DOT":-9.5e-07,"MEAN_MOTION_DDOT":0.0},{"OBJECT_NAME":"ONEWEB-0161","OBJECT_ID":"2021-025M","EPOCH":"2026-06-11T03:37:18.759648","MEAN_MOTION":13.13470026,"ECCENTRICITY":0.0001924,"INCLINATION":87.8957,"RA_OF_ASC_NODE":321.4214,"ARG_OF_PERICENTER":99.4164,"MEAN_ANOMALY":260.7182,"EPHEMERIS_TYPE":0,"CLASSIFICATION_TYPE":"U","NORAD_CAT_ID":48053,"ELEMENT_SET_NO":999,"REV_AT_EPOCH":25271,"BSTAR":-0.00047553,"MEAN_MOTION_DOT":-1.61e-06,"MEAN_MOTION_DDOT":0.0},{"OBJECT_NAME":"ONEWEB-0158","OBJECT_ID":"2021-025N","EPOCH":"2026-06-11T04:28:31.340640","MEAN_MOTION":13.13471609,"ECCENTRICITY":0.0001601,"INCLINATION":87.8956,"RA_OF_ASC_NODE":321.4118,"ARG_OF_PERICENTER":92.4742,"MEAN_ANOMALY":267.6571,"EPHEMERIS_TYPE":0,"CLASSIFICATION_TYPE":"U","NORAD_CAT_ID":48054,"ELEMENT_SET_NO":999,"REV_AT_EPOCH":25284,"BSTAR":0.00040121000000000004,"MEAN_MOTION_DOT":1.59e-06,"MEAN_MOTION_DDOT":0.0},{"OBJECT_NAME":"ONEWEB-0157","OBJECT_ID":"2021-025P","EPOCH":"2026-06-11T03:15:23.304960","MEAN_MOTION":13.13468982,"ECCENTRICITY":0.0001952,"INCLINATION":87.8954,"RA_OF_ASC_NODE":321.4278,"ARG_OF_PERICENTER":106.4657,"MEAN_ANOMALY":253.6687,"EPHEMERIS_TYPE":0,"CLASSIFICATION_TYPE":"U","NORAD_CAT_ID":48055,"ELEMENT_SET_NO":999,"REV_AT_EPOCH":25277,"BSTAR":0.00050133,"MEAN_MOTION_DOT":1.96e-06,"MEAN_MOTION_DDOT":0.0},{"OBJECT_NAME":"ONEWEB-0162","OBJECT_ID":"2021-025Q","EPOCH":"2026-06-11T04:30:45.067968","MEAN_MOTION":13.13470186,"ECCENTRICITY":0.0001987,"INCLINATION":87.8952,"RA_OF_ASC_NODE":321.4182,"ARG_OF_PERICENTER":94.3272,"MEAN_ANOMALY":265.8084,"EPHEMERIS_TYPE":0,"CLASSIFICATION_TYPE":"U","NORAD_CAT_ID":48056,"ELEMENT_SET_NO":999,"REV_AT_EPOCH":25275,"BSTAR":0.00038812000000000004,"MEAN_MOTION_DOT":1.54e-06,"MEAN_MOTION_DDOT":0.0},{"OBJECT_NAME":"ONEWEB-0155","OBJECT_ID":"2021-025R","EPOCH":"2026-06-11T04:40:41.877696","MEAN_MOTION":13.13464734,"ECCENTRICITY":0.000183,"INCLINATION":87.8943,"RA_OF_ASC_NODE":321.4126,"ARG_OF_PERICENTER":101.1807,"MEAN_ANOMALY":258.9528,"EPHEMERIS_TYPE":0,"CLASSIFICATION_TYPE":"U","NORAD_CAT_ID":48057,"ELEMENT_SET_NO":999,"REV_AT_EPOCH":25289,"BSTAR":0.0038428000000000004,"MEAN_MOTION_DOT":1.416e-05,"MEAN_MOTION_DDOT":0.0},{"OBJECT_NAME":"ONEWEB-0149","OBJECT_ID":"2021-025S","EPOCH":"2026-06-10T23:43:18.274080","MEAN_MOTION":13.13469227,"ECCENTRICITY":0.0002019,"INCLINATION":87.8955,"RA_OF_ASC_NODE":321.4574,"ARG_OF_PERICENTER":93.8702,"MEAN_ANOMALY":266.2658,"EPHEMERIS_TYPE":0,"CLASSIFICATION_TYPE":"U","NORAD_CAT_ID":48058,"ELEMENT_SET_NO":999,"REV_AT_EPOCH":25267,"BSTAR":0.00010206999999999999,"MEAN_MOTION_DOT":5e-07,"MEAN_MOTION_DDOT":0.0},{"OBJECT_NAME":"ONEWEB-0148","OBJECT_ID":"2021-025T","EPOCH":"2026-06-11T04:18:45.359424","MEAN_MOTION":13.13470294,"ECCENTRICITY":0.0002408,"INCLINATION":87.8949,"RA_OF_ASC_NODE":321.4267,"ARG_OF_PERICENTER":95.875,"MEAN_ANOMALY":264.2653,"EPHEMERIS_TYPE":0,"CLASSIFICATION_TYPE":"U","NORAD_CAT_ID":48059,"ELEMENT_SET_NO":999,"REV_AT_EPOCH":25282,"BSTAR":-4.4098000000000004e-05,"MEAN_MOTION_DOT":-3e-08,"MEAN_MOTION_DDOT":0.0},{"OBJECT_NAME":"ONEWEB-0160","OBJECT_ID":"2021-025U","EPOCH":"2026-06-11T04:43:08.091552","MEAN_MOTION":13.13470569,"ECCENTRICITY":0.0001582,"INCLINATION":87.8949,"RA_OF_ASC_NODE":321.4194,"ARG_OF_PERICENTER":71.527,"MEAN_ANOMALY":288.6031,"EPHEMERIS_TYPE":0,"CLASSIFICATION_TYPE":"U","NORAD_CAT_ID":48060,"ELEMENT_SET_NO":999,"REV_AT_EPOCH":25277,"BSTAR":0.0008812,"MEAN_MOTION_DOT":3.35e-06,"MEAN_MOTION_DDOT":0.0},{"OBJECT_NAME":"ONEWEB-0163","OBJECT_ID":"2021-025V","EPOCH":"2026-06-10T22:52:06.009312","MEAN_MOTION":13.13471238,"ECCENTRICITY":0.0001893,"INCLINATION":87.8955,"RA_OF_ASC_NODE":321.4619,"ARG_OF_PERICENTER":104.4737,"MEAN_ANOMALY":255.6603,"EPHEMERIS_TYPE":0,"CLASSIFICATION_TYPE":"U","NORAD_CAT_ID":48061,"ELEMENT_SET_NO":999,"REV_AT_EPOCH":25286,"BSTAR":0.00010009,"MEAN_MOTION_DOT":4.9e-07,"MEAN_MOTION_DDOT":0.0}]